BEIDOU-3 G1             
1 43683U 18085A   26202.22028993 -.00000110  00000+0  00000+0 0  9994
2 43683   2.9529  96.4540 0008229 356.8472  84.9732  1.00272764 28403
GSAT-29                 
1 43698U 18089A   26202.12824096  .00000086  00000+0  00000+0 0  9992
2 43698   0.0273 269.2716 0003222 191.5947 299.2358  1.00269807 28126
ES'HAIL 2               
1 43700U 18090A   26202.26497398  .00000145  00000+0  00000+0 0  9990
2 43700   0.0140 324.3139 0002412 190.2603 265.6382  1.00272765 28019
GEO-KOMPSAT-2A          
1 43823U 18100A   26202.28525407 -.00000343  00000+0  00000+0 0  9994
2 43823   0.0282 141.7648 0002452 315.9450  72.2891  1.00271970 27976
GSAT-11                 
1 43824U 18100B   26202.13196764 -.00000076  00000+0  00000+0 0  9992
2 43824   0.0604 261.2929 0007995 198.0549 321.0540  1.00271584 27811
GSAT-7A                 
1 43864U 18105A   26202.12971429  .00000027  00000+0  00000+0 0  9994
2 43864   0.0992  91.1528 0001930  22.0359 295.1564  1.00273268 27782
COSMOS 2533             
1 43867U 18107A   26202.55888870 -.00000038  00000+0  00000+0 0  9996
2 43867   0.0313 115.1009 0000154 247.6267 207.7822  1.00277654 27793
TJS-3                   
1 43874U 18110A   26201.71894023 -.00000219  00000+0  00000+0 0  9993
2 43874   2.6291  80.0898 0002694  85.5737 179.8611  1.00271175 27755
ZHONGXING-2D            
1 43920U 19001A   26202.28560074  .00000000  00000+0  00000+0 0  9991
2 43920   0.0136 225.0942 0000470 157.7516 149.0565  1.00271821 54424
HELLAS-SAT 4 & SGS-1    
1 44034U 19007A   26202.26757399  .00000153  00000+0  00000+0 0  9999
2 44034   0.0651 127.5282 0005969  19.5313 287.3030  1.00273040 27703
GSAT-31                 
1 44035U 19007B   26202.19810317  .00000126  00000+0  00000+0 0  9992
2 44035   0.0289 100.6716 0000820 110.7871 206.7046  1.00274269 27301
NUSANTARA SATU          
1 44048U 19009A   26202.17614492 -.00000234  00000+0  00000+0 0  9993
2 44048   0.0318 117.6253 0004828  10.7897  19.9325  1.00269807 27116
ZHONGXING-6C            
1 44067U 19012A   26202.28577407 -.00000334  00000+0  00000+0 0  9995
2 44067   0.0606  68.4281 0015063 346.4085 117.5487  1.00272574 27087
WGS 10 (USA 291)        
1 44071U 19014A   26202.20052985  .00000048  00000+0  00000+0 0  9994
2 44071   0.0154  72.3589 0000416 321.6624  37.4244  1.00267016 26956
TIANLIAN 2-01           
1 44076U 19017A   26202.20347653 -.00000106  00000+0  00000+0 0  9997
2 44076   0.6255  83.0586 0001688  74.2830 291.8799  1.00271411 26996
ARABSAT-6A              
1 44186U 19021A   26202.26592733  .00000154  00000+0  00000+0 0  9993
2 44186   0.0441   5.5522 0002888 242.0974 177.5968  1.00263513 26492
BEIDOU-3 IGSO-1         
1 44204U 19023A   26197.32034861 -.00000209  00000+0  00000+0 0  9991
2 44204  58.7368  37.3490 0025911 224.0979 267.2124  1.00282972  7507
BEIDOU-2 G8             
1 44231U 19027A   26202.21725659 -.00000248  00000+0  00000+0 0  9995
2 44231   1.7426  74.5173 0009663 283.4916 163.6965  1.00270334 26420
YAMAL 601               
1 44307U 19031A   26201.99145456  .00000120  00000+0  00000+0 0  9997
2 44307   0.0161  95.1249 0002621  23.0619 226.4842  1.00272018 26265
AT&T T-16               
1 44333U 19034A   26202.25355031 -.00000114  00000+0  00000+0 0  9995
2 44333   0.0138  76.3077 0000506 292.2463 280.8752  1.00269693 25971
EUTELSAT 7C             
1 44334U 19034B   26202.11870757  .00000049  00000+0  00000+0 0  9994
2 44334   0.0771 182.8854 0003736 283.4542 242.2857  1.00275307  7178
BEIDOU-3 IGSO-2         
1 44337U 19035A   26201.28533594 -.00000108  00000+0  00000+0 0  9997
2 44337  55.2517 158.5718 0039266 216.3906 144.0267  1.00256016 26009
COSMOS 2539             
1 44457U 19048A   26202.54740113  .00000083  00000+0  00000+0 0  9992
2 44457   0.0287 111.3835 0000603  71.2595 325.7166  1.00272739 25573
EDRS-C                  
1 44475U 19049A   26202.28811409 -.00000261  00000+0  00000+0 0  9990
2 44475   0.0178 120.4098 0001115   9.7697  55.0822  1.00271023 25557
INTELSAT 39 (IS-39)     
1 44476U 19049B   26202.21642005  .00000034  00000+0  00000+0 0  9995
2 44476   0.0129  29.1280 0000927 327.8564  81.8504  1.00271737 25465
AMOS-17                 
1 44479U 19050A   26202.26324065  .00000110  00000+0  00000+0 0  9993
2 44479   0.0166  16.3976 0001545  97.9757 296.4138  1.00270173 25522
AEHF-5 (USA 292)        
1 44481U 19051A   26202.01809774 -.00000257  00000+0  00000+0 0  9998
2 44481   1.4263 338.8865 0064742 357.3562  62.1458  1.00272674 25602
EUTELSAT 5 WEST B       
1 44624U 19067A   26202.25890729 -.00000041  00000+0  00000+0 0  9991
2 44624   0.0747 324.3530 0003215 154.4149 268.4460  1.00271767 24770
TJS-4                   
1 44637U 19070A   26202.13387432 -.00000170  00000+0  00000+0 0  9991
2 44637   0.0948 259.6121 0000175  18.0217 153.0408  1.00273702 24879
TIBA-1                  
1 44800U 19080A   26202.26688066  .00000157  00000+0  00000+0 0  9999
2 44800   0.0506 356.6251 0002303 138.6878 295.3063  1.00276309 24402
INMARSAT GX5            
1 44801U 19080B   26202.26202730  .00000075  00000+0  00000+0 0  9999
2 44801   0.0367  22.1407 0002253 104.6187 277.5909  1.00271111  7123
JCSAT-18 (KACIFIC 1)    
1 44868U 19091A   26202.17614492 -.00000200  00000+0  00000+0 0  9997
2 44868   0.0441 239.5200 0000581 338.0437 294.7456  1.00272456 24352
