OBJECT_NAME,OBJECT_ID,EPOCH,MEAN_MOTION,ECCENTRICITY,INCLINATION,RA_OF_ASC_NODE,ARG_OF_PERICENTER,MEAN_ANOMALY,EPHEMERIS_TYPE,CLASSIFICATION_TYPE,NORAD_CAT_ID,ELEMENT_SET_NO,REV_AT_EPOCH,BSTAR,MEAN_MOTION_DOT,MEAN_MOTION_DDOT
BEIDOU-3 G1,2018-085A,2026-07-21T05:17:13.049952,1.00272764,.00082291,2.9529,96.4540,356.8472,84.9732,0,U,43683,999,2840,0,-.11E-5,0
GSAT-29,2018-089A,2026-07-21T03:04:40.018944,1.00269807,.00032222,0.0273,269.2716,191.5947,299.2358,0,U,43698,999,2812,0,.86E-6,0
ES'HAIL 2,2018-090A,2026-07-21T06:21:33.751872,1.00272765,.00024121,0.0140,324.3139,190.2603,265.6382,0,U,43700,999,2801,0,.145E-5,0
GEO-KOMPSAT-2A,2018-100A,2026-07-21T06:50:45.951648,1.00271970,.00024527,0.0282,141.7648,315.9450,72.2891,0,U,43823,999,2797,0,-.343E-5,0
GSAT-11,2018-100B,2026-07-21T03:10:02.004096,1.00271584,.00079958,0.0604,261.2929,198.0549,321.0540,0,U,43824,999,2781,0,-.76E-6,0
GSAT-7A,2018-105A,2026-07-21T03:06:47.314656,1.00273268,.00019301,0.0992,91.1528,22.0359,295.1564,0,U,43864,999,2778,0,.27E-6,0
COSMOS 2533,2018-107A,2026-07-21T13:24:47.983680,1.00277654,.0000154,0.0313,115.1009,247.6267,207.7822,0,U,43867,999,2779,0,-.38E-6,0
TJS-3,2018-110A,2026-07-20T17:15:16.435872,1.00271175,.0002694,2.6291,80.0898,85.5737,179.8611,0,U,43874,999,2775,0,-.219E-5,0
ZHONGXING-2D,2019-001A,2026-07-21T06:51:15.903936,1.00271821,.00004709,0.0136,225.0942,157.7516,149.0565,0,U,43920,999,5442,0,0,0
HELLAS-SAT 4 & SGS-1,2019-007A,2026-07-21T06:25:18.392736,1.00273040,.00059699,0.0651,127.5282,19.5313,287.3030,0,U,44034,999,2770,0,.153E-5,0
GSAT-31,2019-007B,2026-07-21T04:45:16.113888,1.00274269,.00008206,0.0289,100.6716,110.7871,206.7046,0,U,44035,999,2730,0,.126E-5,0
NUSANTARA SATU,2019-009A,2026-07-21T04:13:38.921088,1.00269807,.00048282,0.0318,117.6253,10.7897,19.9325,0,U,44048,999,2711,0,-.234E-5,0
ZHONGXING-6C,2019-012A,2026-07-21T06:51:30.879648,1.00272574,.00150638,0.0606,68.4281,346.4085,117.5487,0,U,44067,999,2708,0,-.334E-5,0
WGS 10 (USA 291),2019-014A,2026-07-21T04:48:45.779040,1.00267016,.00004167,0.0154,72.3589,321.6624,37.4244,0,U,44071,999,2695,0,.48E-6,0
TIANLIAN 2-01,2019-017A,2026-07-21T04:53:00.372192,1.00271411,.00016884,0.6255,83.0586,74.2830,291.8799,0,U,44076,999,2699,0,-.106E-5,0
ARABSAT-6A,2019-021A,2026-07-21T06:22:56.121312,1.00263513,.00028888,0.0441,5.5522,242.0974,177.5968,0,U,44186,999,2649,0,.154E-5,0
BEIDOU-3 IGSO-1,2019-023A,2026-07-16T07:41:18.119904,1.00282972,.00259114,58.7368,37.3490,224.0979,267.2124,0,U,44204,999,750,0,-.209E-5,0
BEIDOU-2 G8,2019-027A,2026-07-21T05:12:50.969376,1.00270334,.00096633,1.7426,74.5173,283.4916,163.6965,0,U,44231,999,2642,0,-.248E-5,0
YAMAL 601,2019-031A,2026-07-20T23:47:41.673984,1.00272018,.00026212,0.0161,95.1249,23.0619,226.4842,0,U,44307,999,2626,0,.12E-5,0
AT&T T-16,2019-034A,2026-07-21T06:05:06.746784,1.00269693,.00005065,0.0138,76.3077,292.2463,280.8752,0,U,44333,999,2597,0,-.114E-5,0
EUTELSAT 7C,2019-034B,2026-07-21T02:50:56.334048,1.00275307,.00037363,0.0771,182.8854,283.4542,242.2857,0,U,44334,999,717,0,.49E-6,0
BEIDOU-3 IGSO-2,2019-035A,2026-07-20T06:50:53.025216,1.00256016,.00392668,55.2517,158.5718,216.3906,144.0267,0,U,44337,999,2600,0,-.108E-5,0
COSMOS 2539,2019-048A,2026-07-21T13:08:15.457632,1.00272739,.0000603,0.0287,111.3835,71.2595,325.7166,0,U,44457,999,2557,0,.83E-6,0
EDRS-C,2019-049A,2026-07-21T06:54:53.057376,1.00271023,.00011157,0.0178,120.4098,9.7697,55.0822,0,U,44475,999,2555,0,-.261E-5,0
INTELSAT 39 (IS-39),2019-049B,2026-07-21T05:11:38.692320,1.00271737,.00009276,0.0129,29.1280,327.8564,81.8504,0,U,44476,999,2546,0,.34E-6,0
AMOS-17,2019-050A,2026-07-21T06:19:03.992160,1.00270173,.00015453,0.0166,16.3976,97.9757,296.4138,0,U,44479,999,2552,0,.11E-5,0
AEHF-5 (USA 292),2019-051A,2026-07-21T00:26:03.644736,1.00272674,.00647422,1.4263,338.8865,357.3562,62.1458,0,U,44481,999,2560,0,-.257E-5,0
EUTELSAT 5 WEST B,2019-067A,2026-07-21T06:12:49.589856,1.00271767,.00032154,0.0747,324.3530,154.4149,268.4460,0,U,44624,999,2477,0,-.41E-6,0
TJS-4,2019-070A,2026-07-21T03:12:46.741248,1.00273702,.00001752,0.0948,259.6121,18.0217,153.0408,0,U,44637,999,2487,0,-.17E-5,0
TIBA-1,2019-080A,2026-07-21T06:24:18.489024,1.00276309,.00023037,0.0506,356.6251,138.6878,295.3063,0,U,44800,999,2440,0,.157E-5,0
INMARSAT GX5,2019-080B,2026-07-21T06:17:19.158720,1.00271111,.00022539,0.0367,22.1407,104.6187,277.5909,0,U,44801,999,712,0,.75E-6,0
JCSAT-18 (KACIFIC 1),2019-091A,2026-07-21T04:13:38.921088,1.00272456,.00005815,0.0441,239.5200,338.0437,294.7456,0,U,44868,999,2435,0,-.2E-5,0
